[{"OBJECT_NAME":"YAOGAN-36 04C","OBJECT_ID":"2022-171E","EPOCH":"2026-03-09T18:55:44.889600","MEAN_MOTION":15.29852307,"ECCENTRICITY":0.00066848,"INCLINATION":34.9797,"RA_OF_ASC_NODE":96.6578,"ARG_OF_PERICENTER":275.3761,"MEAN_ANOMALY":84.6192,"EPHEMERIS_TYPE":0,"CLASSIFICATION_TYPE":"U","NORAD_CAT_ID":54750,"ELEMENT_SET_NO":999,"REV_AT_EPOCH":18024,"BSTAR":0.00054591902,"MEAN_MOTION_DOT":0.00016196,"MEAN_MOTION_DDOT":0},{"OBJECT_NAME":"STARLINK-30404","OBJECT_ID":"2023-141P","EPOCH":"2026-03-09T21:18:29.057184","MEAN_MOTION":15.30188798,"ECCENTRICITY":0.00010347,"INCLINATION":53.16,"RA_OF_ASC_NODE":282.8255,"ARG_OF_PERICENTER":95.2684,"MEAN_ANOMALY":264.8435,"EPHEMERIS_TYPE":0,"CLASSIFICATION_TYPE":"U","NORAD_CAT_ID":57853,"ELEMENT_SET_NO":999,"REV_AT_EPOCH":14036,"BSTAR":2.22678e-5,"MEAN_MOTION_DOT":3.0e-6,"MEAN_MOTION_DDOT":0}]
